start=new Date('2022-07-16T00:00:00.000Z').valueOf();
sats=[{"PERIOD":"95.437","ARG_OF_PERICENTER":"77.0039","ELEMENT_SET_NO":"999","SITE":"AFETR","MEAN_MOTION_DOT":"0.00003841","OBJECT_ID":"2022-001AN","MEAN_MOTION_DDOT":"0.0000000000000","TIME_SYSTEM":"UTC","REV_AT_EPOCH":"2904","LAUNCH_DATE":"2022-01-06","SEMIMAJOR_AXIS":"6917.860","EPOCH":"2022-07-15T20:48:21.335040","PERIAPSIS":"538.485","OBJECT_TYPE":"PAYLOAD","DECAY_DATE":null,"INCLINATION":"53.2181","FILE":"3514839","OBJECT_NAME":"STARLINK-3320","GP_ID":"208204463","RA_OF_ASC_NODE":"42.3872","APOAPSIS":"540.965","COUNTRY_CODE":"US","MEAN_ELEMENT_THEORY":"SGP4","CENTER_NAME":"EARTH","ECCENTRICITY":"0.00017930","BSTAR":"0.00025923000000","NORAD_CAT_ID":"50839","CLASSIFICATION_TYPE":"U","MEAN_MOTION":"15.08846645","REF_FRAME":"TEME","TLE_LINE1":"1 50839U 22001AN  22196.86691360  .00003841  00000-0  25923-3 0  9999","EPHEMERIS_TYPE":"0","MEAN_ANOMALY":"283.1153","RCS_SIZE":"LARGE","TLE_LINE2":"2 50839  53.2181  42.3872 0001793  77.0039 283.1153 15.08846645 29044"},{"TLE_LINE2":"2 50840  53.2175  42.3995 0001680  67.7920 292.3250 15.08847705 29043","RCS_SIZE":"LARGE","MEAN_MOTION":"15.08847705","REF_FRAME":"TEME","CLASSIFICATION_TYPE":"U","MEAN_ANOMALY":"292.3250","EPHEMERIS_TYPE":"0","TLE_LINE1":"1 50840U 22001AP  22196.86323123  .00004077  00000-0  27405-3 0  9999","NORAD_CAT_ID":"50840","BSTAR":"0.00027405000000","RA_OF_ASC_NODE":"42.3995","OBJECT_NAME":"STARLINK-3295","GP_ID":"208204714","CENTER_NAME":"EARTH","ECCENTRICITY":"0.00016800","APOAPSIS":"540.884","MEAN_ELEMENT_THEORY":"SGP4","COUNTRY_CODE":"US","DECAY_DATE":null,"PERIAPSIS":"538.560","OBJECT_TYPE":"PAYLOAD","FILE":"3514839","INCLINATION":"53.2175","SEMIMAJOR_AXIS":"6917.857","EPOCH":"2022-07-15T20:43:03.178272","MEAN_MOTION_DDOT":"0.0000000000000","TIME_SYSTEM":"UTC","MEAN_MOTION_DOT":"0.00004077","OBJECT_ID":"2022-001AP","REV_AT_EPOCH":"2904","LAUNCH_DATE":"2022-01-06","ELEMENT_SET_NO":"999","ARG_OF_PERICENTER":"67.7920","SITE":"AFETR","PERIOD":"95.437"},{"DECAY_DATE":null,"OBJECT_TYPE":"PAYLOAD","PERIAPSIS":"538.616","INCLINATION":"53.2190","FILE":"3514839","SEMIMAJOR_AXIS":"6917.909","EPOCH":"2022-07-15T20:58:57.752256","MEAN_MOTION_DDOT":"0.0000000000000","TIME_SYSTEM":"UTC","MEAN_MOTION_DOT":"0.00001713","OBJECT_ID":"2022-001AQ","REV_AT_EPOCH":"2905","LAUNCH_DATE":"2022-01-06","ELEMENT_SET_NO":"999","ARG_OF_PERICENTER":"61.3251","SITE":"AFETR","PERIOD":"95.438","TLE_LINE2":"2 50841  53.2190  42.3558 0001673  61.3251 298.7910 15.08830774 29057","RCS_SIZE":"LARGE","MEAN_MOTION":"15.08830774","REF_FRAME":"TEME","CLASSIFICATION_TYPE":"U","MEAN_ANOMALY":"298.7910","TLE_LINE1":"1 50841U 22001AQ  22196.87427954  .00001713  00000-0  12572-3 0  9991","EPHEMERIS_TYPE":"0","NORAD_CAT_ID":"50841","BSTAR":"0.00012572000000","RA_OF_ASC_NODE":"42.3558","GP_ID":"208203462","OBJECT_NAME":"STARLINK-3300","ECCENTRICITY":"0.00016730","CENTER_NAME":"EARTH","APOAPSIS":"540.931","MEAN_ELEMENT_THEORY":"SGP4","COUNTRY_CODE":"US"},{"NORAD_CAT_ID":"50842","BSTAR":"0.00015812000000","CENTER_NAME":"EARTH","ECCENTRICITY":"0.00019170","APOAPSIS":"541.077","MEAN_ELEMENT_THEORY":"SGP4","COUNTRY_CODE":"US","RA_OF_ASC_NODE":"42.4310","GP_ID":"208203712","OBJECT_NAME":"STARLINK-3302","TLE_LINE2":"2 50842  53.2184  42.4310 0001917  78.4443 281.6764 15.08838168 29043","RCS_SIZE":"LARGE","MEAN_ANOMALY":"281.6764","EPHEMERIS_TYPE":"0","TLE_LINE1":"1 50842U 22001AR  22196.85954763  .00002229  00000-0  15812-3 0  9996","MEAN_MOTION":"15.08838168","REF_FRAME":"TEME","CLASSIFICATION_TYPE":"U","REV_AT_EPOCH":"2904","LAUNCH_DATE":"2022-01-06","MEAN_MOTION_DDOT":"0.0000000000000","TIME_SYSTEM":"UTC","MEAN_MOTION_DOT":"0.00002229","OBJECT_ID":"2022-001AR","ELEMENT_SET_NO":"999","ARG_OF_PERICENTER":"78.4443","SITE":"AFETR","PERIOD":"95.438","INCLINATION":"53.2184","FILE":"3514839","DECAY_DATE":null,"OBJECT_TYPE":"PAYLOAD","PERIAPSIS":"538.425","SEMIMAJOR_AXIS":"6917.886","EPOCH":"2022-07-15T20:37:44.915232"},{"MEAN_ANOMALY":"292.5908","EPHEMERIS_TYPE":"0","TLE_LINE1":"1 50843U 22001AS  22196.88163488  .00000631  00000-0  57732-4 0  9999","REF_FRAME":"TEME","MEAN_MOTION":"15.08832855","CLASSIFICATION_TYPE":"U","TLE_LINE2":"2 50843  53.2181  42.3359 0001461  67.5238 292.5908 15.08832855 29057","RCS_SIZE":"LARGE","CENTER_NAME":"EARTH","ECCENTRICITY":"0.00014610","MEAN_ELEMENT_THEORY":"SGP4","COUNTRY_CODE":"US","APOAPSIS":"540.778","RA_OF_ASC_NODE":"42.3359","OBJECT_NAME":"STARLINK-3325","GP_ID":"208204964","NORAD_CAT_ID":"50843","BSTAR":"0.00005773200000","EPOCH":"2022-07-15T21:09:33.253632","SEMIMAJOR_AXIS":"6917.902","INCLINATION":"53.2181","FILE":"3514839","DECAY_DATE":null,"PERIAPSIS":"538.757","OBJECT_TYPE":"PAYLOAD","SITE":"AFETR","ELEMENT_SET_NO":"999","ARG_OF_PERICENTER":"67.5238","PERIOD":"95.438","LAUNCH_DATE":"2022-01-06","REV_AT_EPOCH":"2905","TIME_SYSTEM":"UTC","MEAN_MOTION_DDOT":"0.0000000000000","OBJECT_ID":"2022-001AS","MEAN_MOTION_DOT":"0.00000631"},{"MEAN_ANOMALY":"301.0710","TLE_LINE1":"1 50844U 22001AT  22196.84851873  .00008514  00000-0  55221-3 0  9996","EPHEMERIS_TYPE":"0","MEAN_MOTION":"15.08850633","REF_FRAME":"TEME","CLASSIFICATION_TYPE":"U","TLE_LINE2":"2 50844  53.2190  42.4843 0001739  59.0453 301.0710 15.08850633 29051","RCS_SIZE":"LARGE","CENTER_NAME":"EARTH","ECCENTRICITY":"0.00017390","APOAPSIS":"540.916","MEAN_ELEMENT_THEORY":"SGP4","COUNTRY_CODE":"US","RA_OF_ASC_NODE":"42.4843","GP_ID":"208205215","OBJECT_NAME":"STARLINK-3326","NORAD_CAT_ID":"50844","BSTAR":"0.00055221000000","SEMIMAJOR_AXIS":"6917.848","EPOCH":"2022-07-15T20:21:52.018272","FILE":"3514839","INCLINATION":"53.2190","DECAY_DATE":null,"OBJECT_TYPE":"PAYLOAD","PERIAPSIS":"538.510","ARG_OF_PERICENTER":"59.0453","ELEMENT_SET_NO":"999","SITE":"AFETR","PERIOD":"95.437","REV_AT_EPOCH":"2905","LAUNCH_DATE":"2022-01-06","MEAN_MOTION_DDOT":"0.0000000000000","TIME_SYSTEM":"UTC","MEAN_MOTION_DOT":"0.00008514","OBJECT_ID":"2022-001AT"},{"INCLINATION":"53.2188","FILE":"3514839","OBJECT_TYPE":"PAYLOAD","PERIAPSIS":"538.602","DECAY_DATE":null,"EPOCH":"2022-07-15T21:25:27.237504","SEMIMAJOR_AXIS":"6917.881","LAUNCH_DATE":"2022-01-06","REV_AT_EPOCH":"2906","OBJECT_ID":"2022-001AU","MEAN_MOTION_DOT":"-0.00000660","TIME_SYSTEM":"UTC","MEAN_MOTION_DDOT":"0.0000000000000","PERIOD":"95.438","SITE":"AFETR","ELEMENT_SET_NO":"999","ARG_OF_PERICENTER":"57.1387","RCS_SIZE":"LARGE","TLE_LINE2":"2 50845  53.2188  42.2759 0001654  57.1387 302.9765 15.08839886 29062","EPHEMERIS_TYPE":"0","TLE_LINE1":"1 50845U 22001AU  22196.89267636 -.00000660  00000-0 -23399-4 0  9998","MEAN_ANOMALY":"302.9765","CLASSIFICATION_TYPE":"U","REF_FRAME":"TEME","MEAN_MOTION":"15.08839886","BSTAR":"-0.00002339900000","NORAD_CAT_ID":"50845","COUNTRY_CODE":"US","MEAN_ELEMENT_THEORY":"SGP4","APOAPSIS":"540.890","CENTER_NAME":"EARTH","ECCENTRICITY":"0.00016540","OBJECT_NAME":"STARLINK-3230","GP_ID":"208203963","RA_OF_ASC_NODE":"42.2759"},{"RCS_SIZE":"LARGE","TLE_LINE2":"2 50846  53.2186  42.4970 0001890  74.0224 286.0976 15.08855773 29056","TLE_LINE1":"1 50846U 22001AV  22196.84483520  .00013189  00000-0  84483-3 0  9994","EPHEMERIS_TYPE":"0","MEAN_ANOMALY":"286.0976","CLASSIFICATION_TYPE":"U","REF_FRAME":"TEME","MEAN_MOTION":"15.08855773","BSTAR":"0.00084483000000","NORAD_CAT_ID":"50846","COUNTRY_CODE":"US","MEAN_ELEMENT_THEORY":"SGP4","APOAPSIS":"541.005","ECCENTRICITY":"0.00018900","CENTER_NAME":"EARTH","GP_ID":"208204213","OBJECT_NAME":"STARLINK-3308","RA_OF_ASC_NODE":"42.4970","FILE":"3514839","INCLINATION":"53.2186","OBJECT_TYPE":"PAYLOAD","PERIAPSIS":"538.390","DECAY_DATE":null,"EPOCH":"2022-07-15T20:16:33.761280","SEMIMAJOR_AXIS":"6917.832","LAUNCH_DATE":"2022-01-06","REV_AT_EPOCH":"2905","OBJECT_ID":"2022-001AV","MEAN_MOTION_DOT":"0.00013189","TIME_SYSTEM":"UTC","MEAN_MOTION_DDOT":"0.0000000000000","PERIOD":"95.437","SITE":"AFETR","ARG_OF_PERICENTER":"74.0224","ELEMENT_SET_NO":"999"},{"DECAY_DATE":null,"OBJECT_TYPE":"PAYLOAD","PERIAPSIS":"538.849","FILE":"3514839","INCLINATION":"53.2170","SEMIMAJOR_AXIS":"6917.848","EPOCH":"2022-07-15T20:53:41.760672","MEAN_MOTION_DDOT":"0.0000000000000","TIME_SYSTEM":"UTC","MEAN_MOTION_DOT":"0.00002962","OBJECT_ID":"2022-001AW","REV_AT_EPOCH":"2905","LAUNCH_DATE":"2022-01-06","ELEMENT_SET_NO":"999","ARG_OF_PERICENTER":"80.9594","SITE":"AFETR","PERIOD":"95.437","TLE_LINE2":"2 50847  53.2170  42.3685 0001249  80.9594 279.1539 15.08850672 29057","RCS_SIZE":"LARGE","MEAN_MOTION":"15.08850672","REF_FRAME":"TEME","CLASSIFICATION_TYPE":"U","MEAN_ANOMALY":"279.1539","EPHEMERIS_TYPE":"0","TLE_LINE1":"1 50847U 22001AW  22196.87062223  .00002962  00000-0  20407-3 0  9994","NORAD_CAT_ID":"50847","BSTAR":"0.00020407000000","RA_OF_ASC_NODE":"42.3685","GP_ID":"208204464","OBJECT_NAME":"STARLINK-3319","ECCENTRICITY":"0.00012490","CENTER_NAME":"EARTH","APOAPSIS":"540.577","COUNTRY_CODE":"US","MEAN_ELEMENT_THEORY":"SGP4"},{"BSTAR":"0.00018508000000","NORAD_CAT_ID":"50848","GP_ID":"208204715","OBJECT_NAME":"STARLINK-3315","RA_OF_ASC_NODE":"42.5104","COUNTRY_CODE":"US","MEAN_ELEMENT_THEORY":"SGP4","APOAPSIS":"540.867","CENTER_NAME":"EARTH","ECCENTRICITY":"0.00016430","RCS_SIZE":"LARGE","TLE_LINE2":"2 50848  53.2195  42.5104 0001643  55.8577 304.2571 15.08844905 29051","CLASSIFICATION_TYPE":"U","REF_FRAME":"TEME","MEAN_MOTION":"15.08844905","EPHEMERIS_TYPE":"0","TLE_LINE1":"1 50848U 22001AX  22196.84114572  .00002659  00000-0  18508-3 0  9999","MEAN_ANOMALY":"304.2571","OBJECT_ID":"2022-001AX","MEAN_MOTION_DOT":"0.00002659","TIME_SYSTEM":"UTC","MEAN_MOTION_DDOT":"0.0000000000000","LAUNCH_DATE":"2022-01-06","REV_AT_EPOCH":"2905","PERIOD":"95.437","SITE":"AFETR","ARG_OF_PERICENTER":"55.8577","ELEMENT_SET_NO":"999","OBJECT_TYPE":"PAYLOAD","PERIAPSIS":"538.594","DECAY_DATE":null,"INCLINATION":"53.2195","FILE":"3514839","EPOCH":"2022-07-15T20:11:14.990208","SEMIMAJOR_AXIS":"6917.865"}];
